H1 CPF  1  MCC 2022 11 15 15  8191 larets
H2  0304206 5557    27944 2022 11 14 23 45 00 2022 11 19 23 57 00   180 1 1  0 0 0
H9
10 0 59897 85500.000000 0     -4599102.493     -2638068.301     -4665272.129
10 0 59897 85680.000000 0     -3913217.602     -1883580.100     -5571479.691
10 0 59897 85860.000000 0     -3065020.189     -1080936.283     -6274235.078
10 0 59897 86040.000000 0     -2084638.294      -263175.585     -6748302.442
10 0 59897 86220.000000 0     -1007696.198       537093.780     -6976788.015
10 0 59898     0.000000 0       125993.395      1288969.171     -6951663.767
10 0 59898   180.000000 0      1273882.053      1964414.701     -6674000.184
10 0 59898   360.000000 0      2392249.930      2539278.455     -6153913.353
10 0 59898   540.000000 0      3437839.746      2994140.055     -5410217.737
10 0 59898   720.000000 0      4369504.875      3314960.528     -4469792.858
10 0 59898   900.000000 0      5149825.332      3493518.601     -3366675.227
10 0 59898  1080.000000 0      5746628.944      3527612.605     -2140881.251
10 0 59898  1260.000000 0      6134348.357      3421018.142      -836992.811
10 0 59898  1440.000000 0      6295148.613      3183194.988       497453.915
10 0 59898  1620.000000 0      6219762.306      2828751.303      1813714.575
10 0 59898  1800.000000 0      5907983.122      2376691.586      3063645.462
10 0 59898  1980.000000 0      5368788.898      1849485.905      4201499.154
10 0 59898  2160.000000 0      4620081.893      1272004.556      5185624.677
10 0 59898  2340.000000 0      3688067.400       670376.130      5979996.922
10 0 59898  2520.000000 0      2606300.585        70824.687      6555526.701
10 0 59898  2700.000000 0      1414447.955      -501457.180      6891099.357
10 0 59898  2880.000000 0       156820.860     -1023355.360      6974330.665
10 0 59898  3060.000000 0     -1119278.122     -1474765.856      6802016.713
10 0 59898  3240.000000 0     -2365333.296     -1839375.017      6380263.690
10 0 59898  3420.000000 0     -3533458.868     -2105258.816      5724301.498
10 0 59898  3600.000000 0     -4578260.714     -2265286.858      4857987.315
10 0 59898  3780.000000 0     -5458650.999     -2317316.607      3812980.242
10 0 59898  3960.000000 0     -6139527.076     -2264159.662      2627607.070
10 0 59898  4140.000000 0     -6593242.489     -2113322.474      1345458.746
10 0 59898  4320.000000 0     -6800799.142     -1876533.689        13753.851
10 0 59898  4500.000000 0     -6752680.426     -1569073.305     -1318464.388
10 0 59898  4680.000000 0     -6449278.384     -1208941.126     -2602208.985
10 0 59898  4860.000000 0     -5900891.856      -815914.325     -3790415.163
10 0 59898  5040.000000 0     -5127306.160      -410545.787     -4839704.697
10 0 59898  5220.000000 0     -4156985.553       -13154.951     -5711971.668
10 0 59898  5400.000000 0     -3025930.263       357133.331     -6375728.615
10 0 59898  5580.000000 0     -1776266.348       683256.595     -6807171.531
10 0 59898  5760.000000 0      -454640.715       950953.357     -6990951.539
10 0 59898  5940.000000 0       889517.441      1149350.382     -6920647.372
10 0 59898  6120.000000 0      2205810.958      1271381.233     -6598949.341
10 0 59898  6300.000000 0      3444726.623      1314027.881     -6037553.858
10 0 59898  6480.000000 0      4559463.866      1278377.739     -5256761.508
10 0 59898  6660.000000 0      5507685.584      1169495.436     -4284795.456
10 0 59898  6840.000000 0      6253140.535       996115.127     -3156843.299
10 0 59898  7020.000000 0      6767088.751       770161.802     -1913838.008
10 0 59898  7200.000000 0      7029469.205       506120.600      -601006.957
10 0 59898  7380.000000 0      7029741.425       220279.974       733769.284
10 0 59898  7560.000000 0      6767352.354       -70113.642      2041719.181
10 0 59898  7740.000000 0      6251800.905      -347750.069      3274994.615
10 0 59898  7920.000000 0      5502285.284      -596150.931      4388455.543
10 0 59898  8100.000000 0      4546957.518      -800518.358      5341341.782
10 0 59898  8280.000000 0      3421824.079      -948496.165      6098769.629
10 0 59898  8460.000000 0      2169346.966     -1030803.588      6632993.756
10 0 59898  8640.000000 0       836814.616     -1041717.379      6924401.630
10 0 59898  8820.000000 0      -525458.748      -979382.182      6962215.937
10 0 59898  9000.000000 0     -1866036.742      -845935.055      6744883.832
10 0 59898  9180.000000 0     -3134300.629      -647439.227      6280152.616
10 0 59898  9360.000000 0     -4282369.555      -393626.517      5584831.864
10 0 59898  9540.000000 0     -5266945.763       -97457.465      4684235.721
10 0 59898  9720.000000 0     -6051010.549       225486.455      3611301.255
10 0 59898  9900.000000 0     -6605292.425       557755.805      2405404.108
10 0 59898 10080.000000 0     -6909440.787       880899.333      1110908.016
10 0 59898 10260.000000 0     -6952841.446      1176399.401      -224506.987
10 0 59898 10440.000000 0     -6735019.511      1426627.329     -1551667.907
10 0 59898 10620.000000 0     -6265602.789      1615765.482     -2821792.155
10 0 59898 10800.000000 0     -5563857.133      1730648.744     -3988343.338
10 0 59898 10980.000000 0     -4657814.616      1761476.854     -5008773.562
10 0 59898 11160.000000 0     -3583058.194      1702362.209     -5846066.709
10 0 59898 11340.000000 0     -2381242.444      1551692.560     -6470032.544
10 0 59898 11520.000000 0     -1098426.259      1312296.999     -6858323.710
10 0 59898 11700.000000 0       216711.455       991413.790     -6997153.173
10 0 59898 11880.000000 0      1514697.659       600465.916     -6881714.909
10 0 59898 12060.000000 0      2747088.323       154653.326     -6516318.680
10 0 59898 12240.000000 0      3868238.644      -327627.738     -5914227.378
10 0 59898 12420.000000 0      4836964.172      -825519.234     -5097205.110
10 0 59898 12600.000000 0      5618048.544     -1316568.383     -4094787.830
10 0 59898 12780.000000 0      6183550.943     -1777699.221     -2943278.093
10 0 59898 12960.000000 0      6513853.924     -2186250.531     -1684481.338
10 0 59898 13140.000000 0      6598400.973     -2521035.558      -364216.811
10 0 59898 13320.000000 0      6436081.407     -2763371.035       969346.991
10 0 59898 13500.000000 0      6035236.502     -2898023.093      2267470.188
10 0 59898 13680.000000 0      5413275.917     -2914019.111      3482657.837
10 0 59898 13860.000000 0      4595920.443     -2805280.533      4570429.406
10 0 59898 14040.000000 0      3616116.993     -2571043.742      5490962.682
10 0 59898 14220.000000 0      2512680.017     -2216053.604      6210554.629
10 0 59898 14400.000000 0      1328722.208     -1750515.770      6702839.354
10 0 59898 14580.000000 0       109950.910     -1189814.657      6949730.865
10 0 59898 14760.000000 0     -1097104.673      -554006.480      6942068.304
10 0 59898 14940.000000 0     -2246869.024       132895.725      6679951.783
10 0 59898 15120.000000 0     -3296443.607       843823.743      6172765.196
10 0 59898 15300.000000 0     -4207225.661      1549715.384      5438880.480
10 0 59898 15480.000000 0     -4946369.931      2220700.212      4505040.710
10 0 59898 15660.000000 0     -5488034.386      2827368.933      3405423.625
10 0 59898 15840.000000 0     -5814348.642      3342071.055      2180406.458
10 0 59898 16020.000000 0     -5916060.519      3740180.374       875072.401
10 0 59898 16200.000000 0     -5792820.881      4001263.708      -462494.709
10 0 59898 16380.000000 0     -5453082.375      4110083.346     -1783049.327
10 0 59898 16560.000000 0     -4913619.238      4057381.258     -3038072.777
10 0 59898 16740.000000 0     -4198688.230      3840397.657     -4181618.693
10 0 59898 16920.000000 0     -3338888.543      3463101.078     -5172020.192
10 0 59898 17100.000000 0     -2369795.885      2936130.115     -5973388.811
10 0 59898 17280.000000 0     -1330449.186      2276461.195     -6556862.122
10 0 59898 17460.000000 0      -261755.353      1506821.384     -6901569.506
10 0 59898 17640.000000 0       795114.269       654879.379     -6995297.580
10 0 59898 17820.000000 0      1800281.415      -247751.649     -6834862.785
10 0 59898 18000.000000 0      2716632.128     -1166672.074     -6426188.130
10 0 59898 18180.000000 0      3511154.300     -2065978.346     -5784087.189
10 0 59898 18360.000000 0      4156110.005     -2909633.650     -4931766.478
10 0 59898 18540.000000 0      4630010.278     -3662893.458     -3900045.218
10 0 59898 18720.000000 0      4918349.627     -4293728.179     -2726300.003
10 0 59898 18900.000000 0      5014076.981     -4774186.653     -1453161.399
10 0 59898 19080.000000 0      4917774.600     -5081640.595      -126990.785
10 0 59898 19260.000000 0      4637524.374     -5199844.993      1203811.529
10 0 59898 19440.000000 0      4188462.830     -5119752.020      2490598.421
10 0 59898 19620.000000 0      3592042.949     -4840032.670      3686287.973
10 0 59898 19800.000000 0      2875042.229     -4367280.697      4747114.591
10 0 59898 19980.000000 0      2068367.814     -3715885.780      5634246.150
10 0 59898 20160.000000 0      1205720.647     -2907585.500      6315203.231
10 0 59898 20340.000000 0       322180.056     -1970718.153      6765030.669
10 0 59898 20520.000000 0      -547226.093      -939213.630      6967186.112
10 0 59898 20700.000000 0     -1368907.464       148640.608      6914133.046
10 0 59898 20880.000000 0     -2112009.185      1251620.248      6607624.744
10 0 59898 21060.000000 0     -2749579.141      2327124.390      6058669.318
10 0 59898 21240.000000 0     -3259564.961      3332826.269      5287174.767
10 0 59898 21420.000000 0     -3625607.974      4228361.324      4321275.077
10 0 59898 21600.000000 0     -3837602.218      4976988.872      3196342.031
10 0 59898 21780.000000 0     -3891987.835      5547155.015      1953701.870
10 0 59898 21960.000000 0     -3791759.107      5913874.101       639095.994
99
